[{"OBJECT_NAME":"ONEWEB-0138","OBJECT_ID":"2020-100AC","EPOCH":"2025-12-15T04:01:22.140768","MEAN_MOTION":13.12589788,"ECCENTRICITY":0.00016829,"INCLINATION":87.8941,"RA_OF_ASC_NODE":27.2141,"ARG_OF_PERICENTER":91.6223,"MEAN_ANOMALY":268.5099,"EPHEMERIS_TYPE":0,"CLASSIFICATION_TYPE":"U","NORAD_CAT_ID":47284,"ELEMENT_SET_NO":999,"REV_AT_EPOCH":24051,"BSTAR":0.00081012388,"MEAN_MOTION_DOT":3.05e-6,"MEAN_MOTION_DDOT":0},{"OBJECT_NAME":"ONEWEB-0139","OBJECT_ID":"2020-100AD","EPOCH":"2025-12-15T08:38:07.125216","MEAN_MOTION":13.12363036,"ECCENTRICITY":0.00017701,"INCLINATION":87.8938,"RA_OF_ASC_NODE":27.1655,"ARG_OF_PERICENTER":96.5246,"MEAN_ANOMALY":263.6084,"EPHEMERIS_TYPE":0,"CLASSIFICATION_TYPE":"U","NORAD_CAT_ID":47285,"ELEMENT_SET_NO":999,"REV_AT_EPOCH":24061,"BSTAR":-0.00081416106,"MEAN_MOTION_DOT":-2.8e-6,"MEAN_MOTION_DDOT":0},{"OBJECT_NAME":"ONEWEB-0140","OBJECT_ID":"2020-100AE","EPOCH":"2025-12-15T09:22:05.210976","MEAN_MOTION":13.12404741,"ECCENTRICITY":0.00017112,"INCLINATION":87.8941,"RA_OF_ASC_NODE":27.1463,"ARG_OF_PERICENTER":92.2674,"MEAN_ANOMALY":267.865,"EPHEMERIS_TYPE":0,"CLASSIFICATION_TYPE":"U","NORAD_CAT_ID":47286,"ELEMENT_SET_NO":999,"REV_AT_EPOCH":24058,"BSTAR":-0.00037225982,"MEAN_MOTION_DOT":-1.21e-6,"MEAN_MOTION_DDOT":0},{"OBJECT_NAME":"ONEWEB-0141","OBJECT_ID":"2020-100AF","EPOCH":"2025-12-15T08:37:41.673504","MEAN_MOTION":13.12362293,"ECCENTRICITY":0.00015786,"INCLINATION":87.8932,"RA_OF_ASC_NODE":27.1614,"ARG_OF_PERICENTER":106.4166,"MEAN_ANOMALY":253.7136,"EPHEMERIS_TYPE":0,"CLASSIFICATION_TYPE":"U","NORAD_CAT_ID":47287,"ELEMENT_SET_NO":999,"REV_AT_EPOCH":24056,"BSTAR":-0.0018374965,"MEAN_MOTION_DOT":-6.48e-6,"MEAN_MOTION_DDOT":0},{"OBJECT_NAME":"ONEWEB-0142","OBJECT_ID":"2020-100AG","EPOCH":"2025-12-15T08:21:30.966912","MEAN_MOTION":13.12428191,"ECCENTRICITY":0.00013858,"INCLINATION":87.8939,"RA_OF_ASC_NODE":27.1869,"ARG_OF_PERICENTER":100.8029,"MEAN_ANOMALY":259.3256,"EPHEMERIS_TYPE":0,"CLASSIFICATION_TYPE":"U","NORAD_CAT_ID":47288,"ELEMENT_SET_NO":999,"REV_AT_EPOCH":24055,"BSTAR":0.0011393961,"MEAN_MOTION_DOT":4.23e-6,"MEAN_MOTION_DDOT":0},{"OBJECT_NAME":"ONEWEB-0143","OBJECT_ID":"2020-100AH","EPOCH":"2025-12-15T08:35:30.720480","MEAN_MOTION":13.12371365,"ECCENTRICITY":0.000177,"INCLINATION":87.8937,"RA_OF_ASC_NODE":27.1807,"ARG_OF_PERICENTER":98.3897,"MEAN_ANOMALY":261.7432,"EPHEMERIS_TYPE":0,"CLASSIFICATION_TYPE":"U","NORAD_CAT_ID":47289,"ELEMENT_SET_NO":999,"REV_AT_EPOCH":24053,"BSTAR":-0.00051392847,"MEAN_MOTION_DOT":-1.72e-6,"MEAN_MOTION_DDOT":0},{"OBJECT_NAME":"ONEWEB-0144","OBJECT_ID":"2020-100AJ","EPOCH":"2025-12-15T04:15:38.089152","MEAN_MOTION":13.12531365,"ECCENTRICITY":0.00014868,"INCLINATION":87.8936,"RA_OF_ASC_NODE":27.1853,"ARG_OF_PERICENTER":88.3431,"MEAN_ANOMALY":271.7867,"EPHEMERIS_TYPE":0,"CLASSIFICATION_TYPE":"U","NORAD_CAT_ID":47290,"ELEMENT_SET_NO":999,"REV_AT_EPOCH":24043,"BSTAR":0.0019163151,"MEAN_MOTION_DOT":7.03e-6,"MEAN_MOTION_DDOT":0},{"OBJECT_NAME":"ONEWEB-0145","OBJECT_ID":"2020-100AK","EPOCH":"2025-12-15T09:03:05.410944","MEAN_MOTION":13.12482155,"ECCENTRICITY":0.00016768,"INCLINATION":87.8941,"RA_OF_ASC_NODE":27.1842,"ARG_OF_PERICENTER":96.1463,"MEAN_ANOMALY":263.9857,"EPHEMERIS_TYPE":0,"CLASSIFICATION_TYPE":"U","NORAD_CAT_ID":47291,"ELEMENT_SET_NO":999,"REV_AT_EPOCH":24065,"BSTAR":-0.00090977294,"MEAN_MOTION_DOT":-3.15e-6,"MEAN_MOTION_DDOT":0},{"OBJECT_NAME":"ONEWEB-0146","OBJECT_ID":"2020-100AL","EPOCH":"2025-12-15T08:58:22.480320","MEAN_MOTION":13.125002,"ECCENTRICITY":0.00021222,"INCLINATION":87.8941,"RA_OF_ASC_NODE":27.1712,"ARG_OF_PERICENTER":97.7894,"MEAN_ANOMALY":262.3475,"EPHEMERIS_TYPE":0,"CLASSIFICATION_TYPE":"U","NORAD_CAT_ID":47292,"ELEMENT_SET_NO":999,"REV_AT_EPOCH":24056,"BSTAR":-0.00054506603,"MEAN_MOTION_DOT":-1.84e-6,"MEAN_MOTION_DDOT":0},{"OBJECT_NAME":"ONEWEB-0147","OBJECT_ID":"2020-100AM","EPOCH":"2025-12-15T08:09:24.711840","MEAN_MOTION":13.12473435,"ECCENTRICITY":0.00017981,"INCLINATION":87.8941,"RA_OF_ASC_NODE":27.1562,"ARG_OF_PERICENTER":87.1186,"MEAN_ANOMALY":273.0148,"EPHEMERIS_TYPE":0,"CLASSIFICATION_TYPE":"U","NORAD_CAT_ID":47293,"ELEMENT_SET_NO":999,"REV_AT_EPOCH":24045,"BSTAR":0.00098277583,"MEAN_MOTION_DOT":3.66e-6,"MEAN_MOTION_DDOT":0},{"OBJECT_NAME":"ONEWEB-0115","OBJECT_ID":"2021-025A","EPOCH":"2025-12-15T06:47:30.653952","MEAN_MOTION":13.13471521,"ECCENTRICITY":0.00018132,"INCLINATION":87.8985,"RA_OF_ASC_NODE":356.767,"ARG_OF_PERICENTER":91.7845,"MEAN_ANOMALY":268.3492,"EPHEMERIS_TYPE":0,"CLASSIFICATION_TYPE":"U","NORAD_CAT_ID":48042,"ELEMENT_SET_NO":999,"REV_AT_EPOCH":22945,"BSTAR":-0.0007981733,"MEAN_MOTION_DOT":-2.79e-6,"MEAN_MOTION_DDOT":0},{"OBJECT_NAME":"ONEWEB-0152","OBJECT_ID":"2021-025B","EPOCH":"2025-12-15T01:37:56.632512","MEAN_MOTION":13.13466402,"ECCENTRICITY":0.00018319,"INCLINATION":87.8986,"RA_OF_ASC_NODE":356.8175,"ARG_OF_PERICENTER":84.4538,"MEAN_ANOMALY":275.68,"EPHEMERIS_TYPE":0,"CLASSIFICATION_TYPE":"U","NORAD_CAT_ID":48043,"ELEMENT_SET_NO":999,"REV_AT_EPOCH":22938,"BSTAR":-0.0012969152,"MEAN_MOTION_DOT":-4.61e-6,"MEAN_MOTION_DDOT":0},{"OBJECT_NAME":"ONEWEB-0153","OBJECT_ID":"2021-025C","EPOCH":"2025-12-15T06:35:19.942368","MEAN_MOTION":13.13471199,"ECCENTRICITY":0.00017132,"INCLINATION":87.8981,"RA_OF_ASC_NODE":356.7808,"ARG_OF_PERICENTER":91.5544,"MEAN_ANOMALY":268.5782,"EPHEMERIS_TYPE":0,"CLASSIFICATION_TYPE":"U","NORAD_CAT_ID":48044,"ELEMENT_SET_NO":999,"REV_AT_EPOCH":22940,"BSTAR":-0.00040265609,"MEAN_MOTION_DOT":-1.34e-6,"MEAN_MOTION_DDOT":0},{"OBJECT_NAME":"ONEWEB-0154","OBJECT_ID":"2021-025D","EPOCH":"2025-12-15T06:30:27.051552","MEAN_MOTION":13.13471655,"ECCENTRICITY":0.00017931,"INCLINATION":87.898,"RA_OF_ASC_NODE":356.7778,"ARG_OF_PERICENTER":88.5749,"MEAN_ANOMALY":271.5586,"EPHEMERIS_TYPE":0,"CLASSIFICATION_TYPE":"U","NORAD_CAT_ID":48045,"ELEMENT_SET_NO":999,"REV_AT_EPOCH":22936,"BSTAR":-0.00021917647,"MEAN_MOTION_DOT":-6.7e-7,"MEAN_MOTION_DDOT":0},{"OBJECT_NAME":"ONEWEB-0116","OBJECT_ID":"2021-025E","EPOCH":"2025-12-15T07:26:30.898176","MEAN_MOTION":13.13472713,"ECCENTRICITY":0.00019013,"INCLINATION":87.8986,"RA_OF_ASC_NODE":356.7546,"ARG_OF_PERICENTER":90.8734,"MEAN_ANOMALY":269.2613,"EPHEMERIS_TYPE":0,"CLASSIFICATION_TYPE":"U","NORAD_CAT_ID":48046,"ELEMENT_SET_NO":999,"REV_AT_EPOCH":22951,"BSTAR":0.00046990081,"MEAN_MOTION_DOT":1.84e-6,"MEAN_MOTION_DDOT":0},{"OBJECT_NAME":"ONEWEB-0150","OBJECT_ID":"2021-025F","EPOCH":"2025-12-15T06:52:22.793952","MEAN_MOTION":13.13470397,"ECCENTRICITY":0.00016659,"INCLINATION":87.8987,"RA_OF_ASC_NODE":356.7551,"ARG_OF_PERICENTER":96.6097,"MEAN_ANOMALY":263.5222,"EPHEMERIS_TYPE":0,"CLASSIFICATION_TYPE":"U","NORAD_CAT_ID":48047,"ELEMENT_SET_NO":999,"REV_AT_EPOCH":22940,"BSTAR":-0.0013751946,"MEAN_MOTION_DOT":-4.89e-6,"MEAN_MOTION_DDOT":0}]
