ONEWEB-0138             
1 47284U 20100AC  25349.16761737  .00000305  00000+0  81012-3 0  9991
2 47284  87.8941  27.2141 0001682  91.6223 268.5099 13.12589788240514
ONEWEB-0139             
1 47285U 20100AD  25349.35980469 -.00000280  00000+0 -81416-3 0  9990
2 47285  87.8938  27.1655 0001770  96.5246 263.6084 13.12363036240614
ONEWEB-0140             
1 47286U 20100AE  25349.39033809 -.00000121  00000+0 -37226-3 0  9996
2 47286  87.8941  27.1463 0001711  92.2674 267.8650 13.12404741240589
ONEWEB-0141             
1 47287U 20100AF  25349.35951011 -.00000648  00000+0 -18375-2 0  9994
2 47287  87.8932  27.1614 0001578 106.4166 253.7136 13.12362293240569
ONEWEB-0142             
1 47288U 20100AG  25349.34827508  .00000423  00000+0  11394-2 0  9990
2 47288  87.8939  27.1869 0001385 100.8029 259.3256 13.12428191240555
ONEWEB-0143             
1 47289U 20100AH  25349.35799445 -.00000172  00000+0 -51393-3 0  9997
2 47289  87.8937  27.1807 0001770  98.3897 261.7432 13.12371365240539
ONEWEB-0144             
1 47290U 20100AJ  25349.17752418  .00000703  00000+0  19163-2 0  9994
2 47290  87.8936  27.1853 0001486  88.3431 271.7867 13.12531365240438
ONEWEB-0145             
1 47291U 20100AK  25349.37714596 -.00000315  00000+0 -90977-3 0  9996
2 47291  87.8941  27.1842 0001676  96.1463 263.9857 13.12482155240654
ONEWEB-0146             
1 47292U 20100AL  25349.37387130 -.00000184  00000+0 -54507-3 0  9990
2 47292  87.8941  27.1712 0002122  97.7894 262.3475 13.12500200240564
ONEWEB-0147             
1 47293U 20100AM  25349.33986935  .00000366  00000+0  98278-3 0  9998
2 47293  87.8941  27.1562 0001798  87.1186 273.0148 13.12473435240456
ONEWEB-0115             
1 48042U 21025A   25349.28299368 -.00000279  00000+0 -79817-3 0  9992
2 48042  87.8985 356.7670 0001813  91.7845 268.3492 13.13471521229450
ONEWEB-0152             
1 48043U 21025B   25349.06801658 -.00000461  00000+0 -12969-2 0  9997
2 48043  87.8986 356.8175 0001831  84.4538 275.6800 13.13466402229389
ONEWEB-0153             
1 48044U 21025C   25349.27453637 -.00000134  00000+0 -40266-3 0  9990
2 48044  87.8981 356.7808 0001713  91.5544 268.5782 13.13471199229404
ONEWEB-0154             
1 48045U 21025D   25349.27114643 -.00000067  00000+0 -21918-3 0  9990
2 48045  87.8980 356.7778 0001793  88.5749 271.5586 13.13471655229369
ONEWEB-0116             
1 48046U 21025E   25349.31007984  .00000184  00000+0  46990-3 0  9990
2 48046  87.8986 356.7546 0001901  90.8734 269.2613 13.13472713229518
ONEWEB-0150             
1 48047U 21025F   25349.28637493 -.00000489  00000+0 -13752-2 0  9990
2 48047  87.8987 356.7551 0001665  96.6097 263.5222 13.13470397229406
